{
  "type": "FeatureCollection",
  "features": [
    {
      "type": "Feature",
      "properties": {
        "norad_id": 58647,
        "name": "TIANMU-1 13",
        "group": "weather",
        "lat": -54.25230668774584,
        "lon": 8.77827850748061,
        "alt_km": 495.38857011804885,
        "timestamp": "2025-12-04T15:47:53.739664+00:00",
        "meta_object_name": "TIANMU-1 13",
        "meta_object_id": "2023-205C",
        "meta_epoch": "2025-12-04T08:09:40.938624",
        "meta_mean_motion": 15.24361478,
        "meta_eccentricity": 0.00063306,
        "meta_inclination": 97.3623,
        "meta_ra_of_asc_node": 358.1179,
        "meta_arg_of_pericenter": 305.0993,
        "meta_mean_anomaly": 54.965,
        "meta_ephemeris_type": 0,
        "meta_classification_type": "U",
        "meta_norad_cat_id": 58647,
        "meta_element_set_no": 999,
        "meta_rev_at_epoch": 10779,
        "meta_bstar": 0.00061047306,
        "meta_mean_motion_dot": 0.000149,
        "meta_mean_motion_ddot": 0,
        "tle_line1": "1 58647U 23205C   25338.34005716  .00014900  00000+0  61047-3 0  9993",
        "tle_line2": "2 58647  97.3623 358.1179 0006330 305.0993  54.9650 15.24361478107791"
      },
      "geometry": {
        "type": "Point",
        "coordinates": [
          8.77827850748061,
          -54.25230668774584
        ]
      }
    },
    {
      "type": "Feature",
      "properties": {
        "norad_id": 58648,
        "name": "TIANMU-1 14",
        "group": "weather",
        "lat": 36.311779995184885,
        "lon": -7.6606621456244985,
        "alt_km": 490.0996140742782,
        "timestamp": "2025-12-04T15:47:53.739675+00:00",
        "meta_object_name": "TIANMU-1 14",
        "meta_object_id": "2023-205D",
        "meta_epoch": "2025-12-04T07:45:38.780928",
        "meta_mean_motion": 15.24345839,
        "meta_eccentricity": 0.00072264,
        "meta_inclination": 97.3556,
        "meta_ra_of_asc_node": 357.4581,
        "meta_arg_of_pericenter": 309.8405,
        "meta_mean_anomaly": 50.2196,
        "meta_ephemeris_type": 0,
        "meta_classification_type": "U",
        "meta_norad_cat_id": 58648,
        "meta_element_set_no": 999,
        "meta_rev_at_epoch": 10779,
        "meta_bstar": 0.00058381571,
        "meta_mean_motion_dot": 0.0001424,
        "meta_mean_motion_ddot": 0,
        "tle_line1": "1 58648U 23205D   25338.32336552  .00014240  00000+0  58382-3 0  9992",
        "tle_line2": "2 58648  97.3556 357.4581 0007226 309.8405  50.2196 15.24345839107798"
      },
      "geometry": {
        "type": "Point",
        "coordinates": [
          -7.6606621456244985,
          36.311779995184885
        ]
      }
    },
    {
      "type": "Feature",
      "properties": {
        "norad_id": 58660,
        "name": "TIANMU-1 19",
        "group": "weather",
        "lat": -15.451105725954356,
        "lon": -92.35688092910308,
        "alt_km": 487.9833649276952,
        "timestamp": "2025-12-04T15:47:53.739685+00:00",
        "meta_object_name": "TIANMU-1 19",
        "meta_object_id": "2023-208A",
        "meta_epoch": "2025-12-04T07:05:03.912288",
        "meta_mean_motion": 15.27610503,
        "meta_eccentricity": 0.0004078,
        "meta_inclination": 97.4396,
        "meta_ra_of_asc_node": 89.3508,
        "meta_arg_of_pericenter": 290.9314,
        "meta_mean_anomaly": 69.1489,
        "meta_ephemeris_type": 0,
        "meta_classification_type": "U",
        "meta_norad_cat_id": 58660,
        "meta_element_set_no": 999,
        "meta_rev_at_epoch": 10753,
        "meta_bstar": 0.00072701648,
        "meta_mean_motion_dot": 0.00019586,
        "meta_mean_motion_ddot": 0,
        "tle_line1": "1 58660U 23208A   25338.29518417  .00019586  00000+0  72702-3 0  9997",
        "tle_line2": "2 58660  97.4396  89.3508 0004078 290.9314  69.1489 15.27610503107538"
      },
      "geometry": {
        "type": "Point",
        "coordinates": [
          -92.35688092910308,
          -15.451105725954356
        ]
      }
    },
    {
      "type": "Feature",
      "properties": {
        "norad_id": 58661,
        "name": "TIANMU-1 20",
        "group": "weather",
        "lat": -54.46852472216454,
        "lon": -100.38159173971826,
        "alt_km": 484.5426903303278,
        "timestamp": "2025-12-04T15:47:53.739695+00:00",
        "meta_object_name": "TIANMU-1 20",
        "meta_object_id": "2023-208B",
        "meta_epoch": "2025-12-04T06:55:05.428992",
        "meta_mean_motion": 15.28802478,
        "meta_eccentricity": 0.00064399,
        "meta_inclination": 97.4332,
        "meta_ra_of_asc_node": 89.7832,
        "meta_arg_of_pericenter": 301.3414,
        "meta_mean_anomaly": 58.7195,
        "meta_ephemeris_type": 0,
        "meta_classification_type": "U",
        "meta_norad_cat_id": 58661,
        "meta_element_set_no": 999,
        "meta_rev_at_epoch": 10760,
        "meta_bstar": 0.00070020733,
        "meta_mean_motion_dot": 0.00019566,
        "meta_mean_motion_ddot": 0,
        "tle_line1": "1 58661U 23208B   25338.28825728  .00019566  00000+0  70021-3 0  9993",
        "tle_line2": "2 58661  97.4332  89.7832 0006439 301.3414  58.7195 15.28802478107605"
      },
      "geometry": {
        "type": "Point",
        "coordinates": [
          -100.38159173971826,
          -54.46852472216454
        ]
      }
    },
    {
      "type": "Feature",
      "properties": {
        "norad_id": 58662,
        "name": "TIANMU-1 21",
        "group": "weather",
        "lat": 12.340269006808702,
        "lon": -86.33698523865141,
        "alt_km": 475.7827581450456,
        "timestamp": "2025-12-04T15:47:53.739705+00:00",
        "meta_object_name": "TIANMU-1 21",
        "meta_object_id": "2023-208C",
        "meta_epoch": "2025-12-04T07:13:38.051904",
        "meta_mean_motion": 15.31272254,
        "meta_eccentricity": 0.00059556,
        "meta_inclination": 97.4381,
        "meta_ra_of_asc_node": 91.667,
        "meta_arg_of_pericenter": 295.7268,
        "meta_mean_anomaly": 64.3358,
        "meta_ephemeris_type": 0,
        "meta_classification_type": "U",
        "meta_norad_cat_id": 58662,
        "meta_element_set_no": 999,
        "meta_rev_at_epoch": 10770,
        "meta_bstar": 0.00074207087,
        "meta_mean_motion_dot": 0.00022388,
        "meta_mean_motion_ddot": 0,
        "tle_line1": "1 58662U 23208C   25338.30113486  .00022388  00000+0  74207-3 0  9994",
        "tle_line2": "2 58662  97.4381  91.6670 0005955 295.7268  64.3358 15.31272254107709"
      },
      "geometry": {
        "type": "Point",
        "coordinates": [
          -86.33698523865141,
          12.340269006808702
        ]
      }
    },
    {
      "type": "Feature",
      "properties": {
        "norad_id": 58663,
        "name": "TIANMU-1 22",
        "group": "weather",
        "lat": -23.493951819484494,
        "lon": -93.48015447275753,
        "alt_km": 490.2830046281115,
        "timestamp": "2025-12-04T15:47:53.739715+00:00",
        "meta_object_name": "TIANMU-1 22",
        "meta_object_id": "2023-208D",
        "meta_epoch": "2025-12-04T07:02:52.137600",
        "meta_mean_motion": 15.27381982,
        "meta_eccentricity": 0.00030136,
        "meta_inclination": 97.4389,
        "meta_ra_of_asc_node": 89.4122,
        "meta_arg_of_pericenter": 327.3005,
        "meta_mean_anomaly": 32.8047,
        "meta_ephemeris_type": 0,
        "meta_classification_type": "U",
        "meta_norad_cat_id": 58663,
        "meta_element_set_no": 999,
        "meta_rev_at_epoch": 10754,
        "meta_bstar": 0.00068952189,
        "meta_mean_motion_dot": 0.00018439,
        "meta_mean_motion_ddot": 0,
        "tle_line1": "1 58663U 23208D   25338.29365900  .00018439  00000+0  68952-3 0  9995",
        "tle_line2": "2 58663  97.4389  89.4122 0003013 327.3005  32.8047 15.27381982107540"
      },
      "geometry": {
        "type": "Point",
        "coordinates": [
          -93.48015447275753,
          -23.493951819484494
        ]
      }
    },
    {
      "type": "Feature",
      "properties": {
        "norad_id": 58700,
        "name": "TIANMU-1 15",
        "group": "weather",
        "lat": 56.56744177950688,
        "lon": 148.70518047151012,
        "alt_km": 486.60244090670585,
        "timestamp": "2025-12-04T15:47:53.739725+00:00",
        "meta_object_name": "TIANMU-1 15",
        "meta_object_id": "2024-004A",
        "meta_epoch": "2025-12-04T07:40:17.230368",
        "meta_mean_motion": 15.24504673,
        "meta_eccentricity": 0.00057175,
        "meta_inclination": 97.4624,
        "meta_ra_of_asc_node": 159.8197,
        "meta_arg_of_pericenter": 332.3922,
        "meta_mean_anomaly": 27.7011,
        "meta_ephemeris_type": 0,
        "meta_classification_type": "U",
        "meta_norad_cat_id": 58700,
        "meta_element_set_no": 999,
        "meta_rev_at_epoch": 10606,
        "meta_bstar": 0.00061613065,
        "meta_mean_motion_dot": 0.000151,
        "meta_mean_motion_ddot": 0,
        "tle_line1": "1 58700U 24004A   25338.31964387  .00015100  00000+0  61613-3 0  9998",
        "tle_line2": "2 58700  97.4624 159.8197 0005717 332.3922  27.7011 15.24504673106066"
      },
      "geometry": {
        "type": "Point",
        "coordinates": [
          148.70518047151012,
          56.56744177950688
        ]
      }
    }
  ]
}